NORAD_CAT_ID,OBJECT_NAME,OBJECT_TYPE,EPOCH,MEAN_MOTION,ECCENTRICITY,INCLINATION,RA_OF_ASC_NODE,ARG_OF_PERICENTER,MEAN_ANOMALY,BSTAR,MEAN_MOTION_DOT,MEAN_MOTION_DDOT,TLE_LINE0,TLE_LINE1,TLE_LINE2,SEMIMAJOR_AXIS,PERIOD,APOGEE,PERIGEE,DECAYED
52615.0,STARLINK-4011,PAYLOAD,2022-12-29 07:41:21,15.08840498,0.0003575,53.2175,120.1575,42.462,317.6648,3.5718e-05,2.8e-06,0.0,0 STARLINK-4011,1 52615U 22052T   22363.32039285  .00000280  00000-0  35718-4 0  9996,2 52615  53.2175 120.1575 0003575  42.4620 317.6648 15.08840498 35070,6917.879,95.438,542.217,537.271,0.0
52615.0,STARLINK-4011,PAYLOAD,2022-12-29 14:02:54,15.08828397,0.0003235,53.2188,118.9672,39.0493,321.0732,-0.00019564,-3.4e-05,0.0,0 STARLINK-4011,1 52615U 22052T   22363.58535750 -.00003400  00000-0 -19564-3 0  9991,2 52615  53.2188 118.9672 0003235  39.0493 321.0732 15.08828397 35112,6917.916,95.438,542.019,537.543,0.0
52615.0,STARLINK-4011,PAYLOAD,2022-12-30 07:32:09,15.08833538,0.000357,53.2192,115.6962,38.0047,322.1197,0.0001911,2.754e-05,0.0,0 STARLINK-4011,1 52615U 22052T   22364.31399435  .00002754  00000-0  19110-3 0  9997,2 52615  53.2192 115.6962 0003570  38.0047 322.1197 15.08833538 35221,6917.9,95.438,542.235,537.295,0.0
52615.0,STARLINK-4011,PAYLOAD,2022-12-30 13:53:41,15.08841148,0.0003037,53.2194,114.5015,36.4539,323.666,0.00023798,3.501e-05,0.0,0 STARLINK-4011,1 52615U 22052T   22364.57894745  .00003501  00000-0  23798-3 0  9997,2 52615  53.2194 114.5015 0003037  36.4539 323.6660 15.08841148 34884,6917.877,95.437,541.8430000000002,537.641,0.0
52615.0,STARLINK-4011,PAYLOAD,2022-12-30 17:04:26,15.08850852,0.0002983,53.2174,113.9093,39.1238,320.997,0.00030743,4.609e-05,0.0,0 STARLINK-4011,1 52615U 22052T   22364.71141995  .00004609  00000-0  30743-3 0  9993,2 52615  53.2174 113.9093 0002983  39.1238 320.9970 15.08850852 35287,6917.847,95.437,541.776,537.649,0.0
52615.0,STARLINK-4011,PAYLOAD,2022-12-31 13:44:27,15.08852809,0.0003242,53.2187,110.0467,32.0947,328.0242,0.00020967,3.051e-05,0.0,0 STARLINK-4011,1 52615U 22052T   22365.57254091  .00003051  00000-0  20967-3 0  9997,2 52615  53.2187 110.0467 0003242  32.0947 328.0242 15.08852809 35030,6917.840999999999,95.437,541.9490000000002,537.4630000000002,0.0
52615.0,STARLINK-4011,PAYLOAD,2022-12-31 16:55:13,15.08849863,0.0003325,53.2187,109.4516,37.1702,322.952,0.00016455,2.332e-05,0.0,0 STARLINK-4011,1 52615U 22052T   22365.70501845  .00002332  00000-0  16455-3 0  9992,2 52615  53.2187 109.4516 0003325  37.1702 322.9520 15.08849863 35054,6917.85,95.437,542.015,537.415,0.0
52615.0,STARLINK-4011,PAYLOAD,2023-01-01 07:13:42,15.08842532,0.0002832,53.2176,106.773,37.6304,322.4886,-0.00012254,-2.239e-05,0.0,0 STARLINK-4011,1 52615U 22052T   23001.30119037 -.00002239  00000-0 -12254-3 0  9995,2 52615  53.2176 106.7730 0002832  37.6304 322.4886 15.08842532 35523,6917.873000000001,95.437,541.697,537.779,0.0
52615.0,STARLINK-4011,PAYLOAD,2023-01-01 13:35:15,15.08836271,0.0002901,53.2177,105.5836,35.5746,324.5439,-0.00016887,-2.975e-05,0.0,0 STARLINK-4011,1 52615U 22052T   23001.56615560 -.00002975  00000-0 -16887-3 0  9998,2 52615  53.2177 105.5836 0002901  35.5746 324.5439 15.08836271 35184,6917.892,95.438,541.764,537.75,0.0
52615.0,STARLINK-4011,PAYLOAD,2023-01-01 16:46:03,15.08823538,0.0002904999999999,53.2176,104.9894,32.8938,327.2235,-0.00026637,-4.524e-05,0.0,0 STARLINK-4011,1 52615U 22052T   23001.69864674 -.00004524  00000-0 -26637-3 0  9990,2 52615  53.2176 104.9894 0002905  32.8938 327.2235 15.08823538 35587,6917.931,95.439,541.805,537.786,0.0
52615.0,STARLINK-4011,PAYLOAD,2023-01-02 07:04:31,15.08826839,0.0002853999999999,53.2176,102.3141,26.9675,333.1465,-0.00016303,-2.882e-05,0.0,0 STARLINK-4011,1 52615U 22052T   23002.29480433 -.00002882  00000-0 -16303-3 0  9998,2 52615  53.2176 102.3141 0002854  26.9675 333.1465 15.08826839 35677,6917.920999999999,95.438,541.76,537.811,0.0
52615.0,STARLINK-4011,PAYLOAD,2023-01-02 13:26:02,15.08838251,0.0002907,53.2178,101.1246,29.727,330.3887,-5.391100000000001e-05,-1.147e-05,0.0,0 STARLINK-4011,1 52615U 22052T   23002.55975561 -.00001147  00000-0 -53911-4 0  9998,2 52615  53.2178 101.1246 0002907  29.7270 330.3887 15.08838251 35334,6917.886,95.438,541.762,537.74,0.0
52615.0,STARLINK-4011,PAYLOAD,2023-01-02 16:36:49,15.08837251,0.0002911,53.218,100.5295,31.3093,328.8072,4.3475e-05,4.03e-06,0.0,0 STARLINK-4011,1 52615U 22052T   23002.69223459  .00000403  00000-0  43475-4 0  9991,2 52615  53.2180 100.5295 0002911  31.3093 328.8072 15.08837251 35732,6917.889,95.438,541.768,537.74,0.0
52615.0,STARLINK-4011,PAYLOAD,2023-01-03 06:55:18,15.08832718,0.0002898999999999,53.2176,97.8532,29.8038,330.3119,0.00034802,5.254e-05,0.0,0 STARLINK-4011,1 52615U 22052T   23003.28840349  .00005254  00000-0  34802-3 0  9992,2 52615  53.2176  97.8532 0002899  29.8038 330.3119 15.08832718 35828,6917.903,95.438,541.773,537.762,0.0
52615.0,STARLINK-4011,PAYLOAD,2023-01-03 13:16:50,15.08833754,0.000291,53.2175,96.6637,32.2455,327.8715,0.00031949,4.799e-05,0.0,0 STARLINK-4011,1 52615U 22052T   23003.55336569  .00004799  00000-0  31949-3 0  9998,2 52615  53.2175  96.6637 0002910  32.2455 327.8715 15.08833754 35481,6917.899,95.438,541.778,537.751,0.0
52615.0,STARLINK-4011,PAYLOAD,2023-01-04 09:56:51,15.08846829,0.0002995,53.2184,92.7986,27.5171,332.5979,0.0002171,3.169e-05,0.0,0 STARLINK-4011,1 52615U 22052T   23004.41448173  .00003169  00000-0  21710-3 0  9994,2 52615  53.2184  92.7986 0002995  27.5171 332.5979 15.08846829 35617,6917.86,95.437,541.7959999999998,537.653,0.0
52615.0,STARLINK-4011,PAYLOAD,2023-01-04 13:07:37,15.08846807,0.0002957,53.2185,92.2038,29.219,330.8967,0.00022614,3.313e-05,0.0,0 STARLINK-4011,1 52615U 22052T   23004.54696141  .00003313  00000-0  22614-3 0  9993,2 52615  53.2185  92.2038 0002957  29.2190 330.8967 15.08846807 36018,6917.86,95.437,541.77,537.679,0.0
52615.0,STARLINK-4011,PAYLOAD,2023-01-04 22:39:55,15.08861226,0.0003086999999999,53.2181,90.4198,27.986,332.1298,0.00042765,6.528e-05,0.0,0 STARLINK-4011,1 52615U 22052T   23004.94439382  .00006528  00000-0  42765-3 0  9999,2 52615  53.2181  90.4198 0003087  27.9860 332.1298 15.08861226 36075,6917.816,95.436,541.816,537.545,0.0
52615.0,STARLINK-4011,PAYLOAD,2023-01-05 05:01:27,15.08862848,0.00031,53.2187,89.2304,29.771,330.3458,0.00042685,6.516e-05,0.0,0 STARLINK-4011,1 52615U 22052T   23005.20935119  .00006516  00000-0  42685-3 0  9996,2 52615  53.2187  89.2304 0003100  29.7710 330.3458 15.08862848 35737,6917.811,95.436,541.82,537.531,0.0
52615.0,STARLINK-4011,PAYLOAD,2023-01-05 14:33:46,15.08866277,0.0003111,53.2167,87.4456,25.2274,334.88699999999994,0.00040736,6.206e-05,0.0,0 STARLINK-4011,1 52615U 22052T   23005.60678431  .00006206  00000-0  40736-3 0  9992,2 52615  53.2167  87.4456 0003111  25.2274 334.8870 15.08866277 35794,6917.8,95.436,541.817,537.513,0.0
52615.0,STARLINK-4011,PAYLOAD,2023-01-06 11:13:47,15.0881371,0.0002794,53.2178,83.5786,17.4656,342.6432,-0.00081328,-0.000132,0.0,0 STARLINK-4011,1 52615U 22052T   23006.46791199 -.00013200  00000-0 -81328-3 0  9990,2 52615  53.2178  83.5786 0002794  17.4656 342.6432 15.08813710 36305,6917.960999999998,95.439,541.759,537.893,0.0
52615.0,STARLINK-4011,PAYLOAD,2023-01-06 14:24:34,15.08809139,0.0002755,53.2178,82.984,16.651,343.4572,-0.00060154,-9.842e-05,0.0,0 STARLINK-4011,1 52615U 22052T   23006.60039583 -.00009842  00000-0 -60154-3 0  9999,2 52615  53.2178  82.9840 0002755  16.6510 343.4572 15.08809139 35949,6917.975,95.44,541.746,537.934,0.0
52615.0,STARLINK-4011,PAYLOAD,2023-01-07 11:04:35,15.08843465,0.0003127,53.2182,79.1213,14.0269,346.0809,0.0011075,0.00017384,0.0,0 STARLINK-4011,1 52615U 22052T   23007.46152256  .00017384  00000-0  11075-2 0  9992,2 52615  53.2182  79.1213 0003127  14.0269 346.0809 15.08843465 36452,6917.87,95.437,541.898,537.572,0.0
52615.0,STARLINK-4011,PAYLOAD,2023-01-07 23:47:41,15.08821803,0.000309,53.2172,76.7421,19.634,340.4771,0.0001508,2.111e-05,0.0,0 STARLINK-4011,1 52615U 22052T   23007.99145052  .00002111  00000-0  15080-3 0  9999,2 52615  53.2172  76.7421 0003090  19.6340 340.4771 15.08821803 36532,6917.936,95.439,541.939,537.663,0.0
52615.0,STARLINK-4011,PAYLOAD,2023-01-08 10:55:23,15.08829833,0.0003116,53.2184,74.6609,19.9956,340.1158,0.00029799,4.456e-05,0.0,0 STARLINK-4011,1 52615U 22052T   23008.45513311  .00004456  00000-0  29799-3 0  9994,2 52615  53.2184  74.6609 0003116  19.9956 340.1158 15.08829833 36228,6917.911,95.438,541.932,537.621,0.0
52615.0,STARLINK-4011,PAYLOAD,2023-01-09 13:56:56,15.08852988,0.0003165,53.2185,69.6059,23.2096,336.9038,0.00047714,7.316e-05,0.0,0 STARLINK-4011,1 52615U 22052T   23009.58120769  .00007316  00000-0  47714-3 0  9995,2 52615  53.2185  69.6059 0003165  23.2096 336.9038 15.08852988 36776,6917.840999999999,95.437,541.895,537.516,0.0
52615.0,STARLINK-4011,PAYLOAD,2023-01-10 04:15:24,15.08843686,0.0003447,53.2177,66.9288,18.2007,341.9108,-2.2262e-05,-6.43e-06,0.0,0 STARLINK-4011,1 52615U 22052T   23010.17736640 -.00000643  00000-0 -22262-4 0  9993,2 52615  53.2177  66.9288 0003447  18.2007 341.9108 15.08843686 36869,6917.8690000000015,95.437,542.119,537.35,0.0
52615.0,STARLINK-4011,PAYLOAD,2023-01-10 10:36:56,15.08843504,0.0003404,53.2175,65.7388,19.3977,340.7144,7.6294e-05,9.26e-06,0.0,0 STARLINK-4011,1 52615U 22052T   23010.44232536  .00000926  00000-0  76294-4 0  9994,2 52615  53.2175  65.7388 0003404  19.3977 340.7144 15.08843504 36525,6917.87,95.437,542.09,537.38,0.0
52615.0,STARLINK-4011,PAYLOAD,2023-01-11 10:27:43,15.08850112,0.0003109,53.2172,61.2791,20.4366,339.675,0.00035564,5.378e-05,0.0,0 STARLINK-4011,1 52615U 22052T   23011.43592241  .00005378  00000-0  35564-3 0  9996,2 52615  53.2172  61.2791 0003109  20.4366 339.6750 15.08850112 37050,6917.849,95.437,541.865,537.564,0.0
